start=new Date('2023-05-21T00:00:00.000Z').valueOf();
sats=[{"OBJECT_NAME":"STARLINK-2457","ELEMENT_SET_NO":"999","INCLINATION":"53.0548","ECCENTRICITY":"0.00008920","RCS_SIZE":"LARGE","CENTER_NAME":"EARTH","DECAY_DATE":null,"GP_ID":"232208124","MEAN_MOTION":"15.06431137","FILE":"3913175","SITE":"AFETR","ARG_OF_PERICENTER":"104.4428","MEAN_MOTION_DOT":"0.00019818","OBJECT_TYPE":"PAYLOAD","PERIAPSIS":"546.500","TIME_SYSTEM":"UTC","RA_OF_ASC_NODE":"17.5169","SEMIMAJOR_AXIS":"6925.253","REV_AT_EPOCH":"11372","MEAN_ANOMALY":"255.6660","REF_FRAME":"TEME","NORAD_CAT_ID":"48321","APOAPSIS":"547.736","COUNTRY_CODE":"US","LAUNCH_DATE":"2021-04-29","TLE_LINE2":"2 48321  53.0548  17.5169 0000892 104.4428 255.6660 15.06431137113721","EPOCH":"2023-05-20T21:58:19.347744","PERIOD":"95.590","OBJECT_ID":"2021-036AX","EPHEMERIS_TYPE":"0","BSTAR":"0.00134450000000","TLE_LINE1":"1 48321U 21036AX  23140.91550171  .00019818  00000-0  13445-2 0  9995","MEAN_MOTION_DDOT":"0.0000000000000","CLASSIFICATION_TYPE":"U","MEAN_ELEMENT_THEORY":"SGP4"},{"MEAN_ELEMENT_THEORY":"SGP4","CLASSIFICATION_TYPE":"U","BSTAR":"0.00156710000000","TLE_LINE1":"1 48322U 21036AY  23140.91181434  .00023162  00000-0  15671-2 0  9998","MEAN_MOTION_DDOT":"0.0000000000000","EPHEMERIS_TYPE":"0","OBJECT_ID":"2021-036AY","PERIOD":"95.590","EPOCH":"2023-05-20T21:53:00.758976","TLE_LINE2":"2 48322  53.0545  17.5333 0001031 102.0238 258.0867 15.06438584113720","LAUNCH_DATE":"2021-04-29","COUNTRY_CODE":"US","NORAD_CAT_ID":"48322","APOAPSIS":"547.809","REF_FRAME":"TEME","MEAN_ANOMALY":"258.0867","REV_AT_EPOCH":"11372","SEMIMAJOR_AXIS":"6925.230","RA_OF_ASC_NODE":"17.5333","TIME_SYSTEM":"UTC","OBJECT_TYPE":"PAYLOAD","PERIAPSIS":"546.381","MEAN_MOTION_DOT":"0.00023162","ARG_OF_PERICENTER":"102.0238","SITE":"AFETR","FILE":"3913175","MEAN_MOTION":"15.06438584","GP_ID":"232208373","DECAY_DATE":null,"CENTER_NAME":"EARTH","RCS_SIZE":"LARGE","ECCENTRICITY":"0.00010310","INCLINATION":"53.0545","ELEMENT_SET_NO":"999","OBJECT_NAME":"STARLINK-2477"},{"REF_FRAME":"TEME","SEMIMAJOR_AXIS":"6925.219","REV_AT_EPOCH":"11371","MEAN_ANOMALY":"275.4896","TIME_SYSTEM":"UTC","RA_OF_ASC_NODE":"17.8464","LAUNCH_DATE":"2021-04-29","APOAPSIS":"547.696","NORAD_CAT_ID":"48323","COUNTRY_CODE":"US","EPHEMERIS_TYPE":"0","PERIOD":"95.589","OBJECT_ID":"2021-036AZ","EPOCH":"2023-05-20T20:12:09.830880","TLE_LINE2":"2 48323  53.0550  17.8464 0000884  84.6193 275.4896 15.06442231113713","MEAN_ELEMENT_THEORY":"SGP4","CLASSIFICATION_TYPE":"U","TLE_LINE1":"1 48323U 21036AZ  23140.84178045  .00024292  00000-0  16422-2 0  9995","MEAN_MOTION_DDOT":"0.0000000000000","BSTAR":"0.00164220000000","ELEMENT_SET_NO":"999","OBJECT_NAME":"STARLINK-2515","FILE":"3913175","SITE":"AFETR","MEAN_MOTION":"15.06442231","GP_ID":"232207627","RCS_SIZE":"LARGE","CENTER_NAME":"EARTH","DECAY_DATE":null,"ECCENTRICITY":"0.00008840","INCLINATION":"53.0550","MEAN_MOTION_DOT":"0.00024292","ARG_OF_PERICENTER":"84.6193","OBJECT_TYPE":"PAYLOAD","PERIAPSIS":"546.472"},{"EPOCH":"2023-05-20T20:05:29.971680","TLE_LINE2":"2 48324  53.0548  17.8580 0000977  81.9650 278.1450 15.06455570113706","EPHEMERIS_TYPE":"0","OBJECT_ID":"2021-036BA","PERIOD":"95.589","TLE_LINE1":"1 48324U 21036BA  23140.83715245  .00029957  00000-0  20185-2 0  9998","MEAN_MOTION_DDOT":"0.0000000000000","BSTAR":"0.00201850000000","MEAN_ELEMENT_THEORY":"SGP4","CLASSIFICATION_TYPE":"U","RA_OF_ASC_NODE":"17.8580","TIME_SYSTEM":"UTC","REF_FRAME":"TEME","MEAN_ANOMALY":"278.1450","REV_AT_EPOCH":"11370","SEMIMAJOR_AXIS":"6925.178","LAUNCH_DATE":"2021-04-29","COUNTRY_CODE":"US","APOAPSIS":"547.720","NORAD_CAT_ID":"48324","ARG_OF_PERICENTER":"81.9650","MEAN_MOTION_DOT":"0.00029957","OBJECT_TYPE":"PAYLOAD","PERIAPSIS":"546.367","OBJECT_NAME":"STARLINK-2527","ELEMENT_SET_NO":"999","DECAY_DATE":null,"CENTER_NAME":"EARTH","RCS_SIZE":"LARGE","ECCENTRICITY":"0.00009770","INCLINATION":"53.0548","SITE":"AFETR","FILE":"3913175","GP_ID":"232207877","MEAN_MOTION":"15.06455570"},{"GP_ID":"232208624","MEAN_MOTION":"15.06443313","SITE":"AFETR","FILE":"3913175","INCLINATION":"53.0543","ECCENTRICITY":"0.00010110","DECAY_DATE":null,"CENTER_NAME":"EARTH","RCS_SIZE":"LARGE","ELEMENT_SET_NO":"999","OBJECT_NAME":"STARLINK-2495","OBJECT_TYPE":"PAYLOAD","PERIAPSIS":"546.381","MEAN_MOTION_DOT":"0.00028785","ARG_OF_PERICENTER":"90.7523","COUNTRY_CODE":"US","APOAPSIS":"547.781","NORAD_CAT_ID":"48325","LAUNCH_DATE":"2021-04-29","MEAN_ANOMALY":"269.3582","SEMIMAJOR_AXIS":"6925.216","REV_AT_EPOCH":"11371","REF_FRAME":"TEME","RA_OF_ASC_NODE":"17.8809","TIME_SYSTEM":"UTC","CLASSIFICATION_TYPE":"U","MEAN_ELEMENT_THEORY":"SGP4","MEAN_MOTION_DDOT":"0.0000000000000","TLE_LINE1":"1 48325U 21036BB  23140.83440874  .00028785  00000-0  19412-2 0  9991","BSTAR":"0.00194120000000","PERIOD":"95.589","OBJECT_ID":"2021-036BB","EPHEMERIS_TYPE":"0","TLE_LINE2":"2 48325  53.0543  17.8809 0001011  90.7523 269.3582 15.06443313113714","EPOCH":"2023-05-20T20:01:32.915136"},{"MEAN_ANOMALY":"265.1121","SEMIMAJOR_AXIS":"6925.246","REV_AT_EPOCH":"11371","REF_FRAME":"TEME","RA_OF_ASC_NODE":"17.8997","TIME_SYSTEM":"UTC","COUNTRY_CODE":"US","NORAD_CAT_ID":"48326","APOAPSIS":"547.913","LAUNCH_DATE":"2021-04-29","OBJECT_ID":"2021-036BC","PERIOD":"95.590","EPHEMERIS_TYPE":"0","TLE_LINE2":"2 48326  53.0544  17.8997 0001158  95.0001 265.1121 15.06433495113718","EPOCH":"2023-05-20T19:56:14.035200","CLASSIFICATION_TYPE":"U","MEAN_ELEMENT_THEORY":"SGP4","BSTAR":"0.00067430000000","TLE_LINE1":"1 48326U 21036BC  23140.83071800  .00009785  00000-0  67430-3 0  9994","MEAN_MOTION_DDOT":"0.0000000000000","ELEMENT_SET_NO":"999","OBJECT_NAME":"STARLINK-2498","GP_ID":"232208873","MEAN_MOTION":"15.06433495","SITE":"AFETR","FILE":"3913175","INCLINATION":"53.0544","ECCENTRICITY":"0.00011580","DECAY_DATE":null,"CENTER_NAME":"EARTH","RCS_SIZE":"LARGE","MEAN_MOTION_DOT":"0.00009785","ARG_OF_PERICENTER":"95.0001","OBJECT_TYPE":"PAYLOAD","PERIAPSIS":"546.309"},{"TLE_LINE2":"2 48327  53.0542  17.9149 0001269  82.6121 277.5012 15.06431786113712","EPOCH":"2023-05-20T19:50:56.096160","OBJECT_ID":"2021-036BD","PERIOD":"95.590","EPHEMERIS_TYPE":"0","TLE_LINE1":"1 48327U 21036BD  23140.82703815  .00021665  00000-0  14676-2 0  9996","BSTAR":"0.00146760000000","MEAN_MOTION_DDOT":"0.0000000000000","CLASSIFICATION_TYPE":"U","MEAN_ELEMENT_THEORY":"SGP4","RA_OF_ASC_NODE":"17.9149","TIME_SYSTEM":"UTC","MEAN_ANOMALY":"277.5012","REV_AT_EPOCH":"11371","SEMIMAJOR_AXIS":"6925.251","REF_FRAME":"TEME","COUNTRY_CODE":"US","APOAPSIS":"547.995","NORAD_CAT_ID":"48327","LAUNCH_DATE":"2021-04-29","ARG_OF_PERICENTER":"82.6121","MEAN_MOTION_DOT":"0.00021665","OBJECT_TYPE":"PAYLOAD","PERIAPSIS":"546.237","OBJECT_NAME":"STARLINK-2502","ELEMENT_SET_NO":"999","ECCENTRICITY":"0.00012690","INCLINATION":"53.0542","DECAY_DATE":null,"CENTER_NAME":"EARTH","RCS_SIZE":"LARGE","GP_ID":"232207128","MEAN_MOTION":"15.06431786","SITE":"AFETR","FILE":"3913175"},{"LAUNCH_DATE":"2021-04-29","COUNTRY_CODE":"US","NORAD_CAT_ID":"48328","APOAPSIS":"547.808","RA_OF_ASC_NODE":"17.9300","TIME_SYSTEM":"UTC","REF_FRAME":"TEME","MEAN_ANOMALY":"272.2507","REV_AT_EPOCH":"11371","SEMIMAJOR_AXIS":"6925.195","BSTAR":"0.00183600000000","TLE_LINE1":"1 48328U 21036BE  23140.82240569  .00027209  00000-0  18360-2 0  9993","MEAN_MOTION_DDOT":"0.0000000000000","MEAN_ELEMENT_THEORY":"SGP4","CLASSIFICATION_TYPE":"U","EPOCH":"2023-05-20T19:44:15.851616","TLE_LINE2":"2 48328  53.0553  17.9300 0001081  87.8605 272.2507 15.06450267113716","EPHEMERIS_TYPE":"0","OBJECT_ID":"2021-036BE","PERIOD":"95.589","DECAY_DATE":null,"RCS_SIZE":"LARGE","CENTER_NAME":"EARTH","ECCENTRICITY":"0.00010810","INCLINATION":"53.0553","SITE":"AFETR","FILE":"3913175","GP_ID":"232207378","MEAN_MOTION":"15.06450267","OBJECT_NAME":"STARLINK-2504","ELEMENT_SET_NO":"999","OBJECT_TYPE":"PAYLOAD","PERIAPSIS":"546.311","ARG_OF_PERICENTER":"87.8605","MEAN_MOTION_DOT":"0.00027209"},{"MEAN_MOTION_DOT":"0.00018251","ARG_OF_PERICENTER":"74.1017","PERIAPSIS":"546.385","OBJECT_TYPE":"PAYLOAD","ELEMENT_SET_NO":"999","OBJECT_NAME":"STARLINK-2510","MEAN_MOTION":"15.06444677","GP_ID":"232208125","FILE":"3913175","SITE":"AFETR","INCLINATION":"53.0551","ECCENTRICITY":"0.00009980","CENTER_NAME":"EARTH","RCS_SIZE":"LARGE","DECAY_DATE":null,"PERIOD":"95.589","OBJECT_ID":"2021-036BF","EPHEMERIS_TYPE":"0","TLE_LINE2":"2 48329  53.0551  17.9428 0000998  74.1017 286.0082 15.06444677113717","EPOCH":"2023-05-20T19:40:18.801120","CLASSIFICATION_TYPE":"U","MEAN_ELEMENT_THEORY":"SGP4","TLE_LINE1":"1 48329U 21036BF  23140.81966205  .00018251  00000-0  12395-2 0  9994","MEAN_MOTION_DDOT":"0.0000000000000","BSTAR":"0.00123950000000","REV_AT_EPOCH":"11371","SEMIMAJOR_AXIS":"6925.212","MEAN_ANOMALY":"286.0082","REF_FRAME":"TEME","TIME_SYSTEM":"UTC","RA_OF_ASC_NODE":"17.9428","NORAD_CAT_ID":"48329","APOAPSIS":"547.768","COUNTRY_CODE":"US","LAUNCH_DATE":"2021-04-29"},{"LAUNCH_DATE":"2021-04-29","NORAD_CAT_ID":"48330","APOAPSIS":"547.694","COUNTRY_CODE":"US","TIME_SYSTEM":"UTC","RA_OF_ASC_NODE":"17.9656","REF_FRAME":"TEME","SEMIMAJOR_AXIS":"6925.213","REV_AT_EPOCH":"11371","MEAN_ANOMALY":"284.8074","TLE_LINE1":"1 48330U 21036BG  23140.81597834  .00025969  00000-0  17538-2 0  9992","BSTAR":"0.00175380000000","MEAN_MOTION_DDOT":"0.0000000000000","MEAN_ELEMENT_THEORY":"SGP4","CLASSIFICATION_TYPE":"U","EPOCH":"2023-05-20T19:35:00.528576","TLE_LINE2":"2 48330  53.0541  17.9656 0000890  75.3014 284.8074 15.06444299113719","EPHEMERIS_TYPE":"0","PERIOD":"95.589","OBJECT_ID":"2021-036BG","CENTER_NAME":"EARTH","RCS_SIZE":"LARGE","DECAY_DATE":null,"INCLINATION":"53.0541","ECCENTRICITY":"0.00008900","FILE":"3913175","SITE":"AFETR","MEAN_MOTION":"15.06444299","GP_ID":"232208374","OBJECT_NAME":"STARLINK-2501","ELEMENT_SET_NO":"999","OBJECT_TYPE":"PAYLOAD","PERIAPSIS":"546.461","ARG_OF_PERICENTER":"75.3014","MEAN_MOTION_DOT":"0.00025969"}];
